[{"OBJECT_NAME":"STARLINK-31662","OBJECT_ID":"2024-076W","EPOCH":"2026-03-09T05:55:38.668512","MEAN_MOTION":15.27527147,"ECCENTRICITY":0.00013429,"INCLINATION":43.001,"RA_OF_ASC_NODE":11.6107,"ARG_OF_PERICENTER":243.6709,"MEAN_ANOMALY":116.4005,"EPHEMERIS_TYPE":0,"CLASSIFICATION_TYPE":"U","NORAD_CAT_ID":59584,"ELEMENT_SET_NO":999,"REV_AT_EPOCH":10643,"BSTAR":0.00029563837,"MEAN_MOTION_DOT":7.869e-5,"MEAN_MOTION_DDOT":0},{"OBJECT_NAME":"LUR-1","OBJECT_ID":"2024-149AQ","EPOCH":"2026-03-09T19:05:45.284064","MEAN_MOTION":15.28658648,"ECCENTRICITY":0.00027765,"INCLINATION":97.379,"RA_OF_ASC_NODE":148.4255,"ARG_OF_PERICENTER":309.1571,"MEAN_ANOMALY":50.9421,"EPHEMERIS_TYPE":0,"CLASSIFICATION_TYPE":"U","NORAD_CAT_ID":60506,"ELEMENT_SET_NO":999,"REV_AT_EPOCH":8678,"BSTAR":0.0003298462,"MEAN_MOTION_DOT":9.121e-5,"MEAN_MOTION_DDOT":0}]
